{"type": "FeatureCollection", "features": [ {"type": "Feature", "properties": {"norad_id": 39634, "name": "SENTINEL-1A", "group": "resource", "lat": 70.54947816294741, "lon": -155.61033392480448, "alt_km": 688.098015074017, "timestamp": "2025-12-21T05:44:51.232842+00:00", "meta": {"OBJECT_NAME": "SENTINEL-1A", "OBJECT_ID": "2014-016A", "EPOCH": "2025-12-20T22:40:23.293920", "MEAN_MOTION": 14.59200345, "ECCENTRICITY": 0.0001261, "INCLINATION": 98.1795, "RA_OF_ASC_NODE": 0.0648, "ARG_OF_PERICENTER": 86.3368, "MEAN_ANOMALY": 273.7976, "EPHEMERIS_TYPE": 0, "CLASSIFICATION_TYPE": "U", "NORAD_CAT_ID": 39634, "ELEMENT_SET_NO": 999, "REV_AT_EPOCH": 62402, "BSTAR": 1.0675039e-05, "MEAN_MOTION_DOT": 5e-08, "MEAN_MOTION_DDOT": 0}, "tle": {"line1": "1 39634U 14016A   25354.94471405  .00000005  00000+0  10675-4 0  9997", "line2": "2 39634  98.1795   0.0648 0001261  86.3368 273.7976 14.59200345624026"}}, "geometry": {"type": "Point", "coordinates": [-155.61033392480448, 70.54947816294741]}}, {"type": "Feature", "properties": {"norad_id": 39731, "name": "KAZEOSAT 1", "group": "resource", "lat": -77.99084629644777, "lon": 110.5754695223721, "alt_km": 759.8459951151108, "timestamp": "2025-12-21T05:44:51.232852+00:00", "meta": {"OBJECT_NAME": "KAZEOSAT 1", "OBJECT_ID": "2014-024A", "EPOCH": "2025-12-20T21:47:53.118816", "MEAN_MOTION": 14.42066264, "ECCENTRICITY": 0.00011783, "INCLINATION": 98.3432, "RA_OF_ASC_NODE": 66.6326, "ARG_OF_PERICENTER": 97.4721, "MEAN_ANOMALY": 262.6603, "EPHEMERIS_TYPE": 0, "CLASSIFICATION_TYPE": "U", "NORAD_CAT_ID": 39731, "ELEMENT_SET_NO": 999, "REV_AT_EPOCH": 61286, "BSTAR": 2.4461085e-05, "MEAN_MOTION_DOT": 3.7e-07, "MEAN_MOTION_DDOT": 0}, "tle": {"line1": "1 39731U 14024A   25354.90825369  .00000037  00000+0  24461-4 0  9995", "line2": "2 39731  98.3432  66.6326 0001178  97.4721 262.6603 14.42066264612863"}}, "geometry": {"type": "Point", "coordinates": [110.5754695223721, -77.99084629644777]}}, {"type": "Feature", "properties": {"norad_id": 39766, "name": "ALOS-2", "group": "resource", "lat": -44.96701478350757, "lon": -98.03134120583131, "alt_km": 638.3598006187913, "timestamp": "2025-12-21T05:44:51.232862+00:00", "meta": {"OBJECT_NAME": "ALOS-2", "OBJECT_ID": "2014-029A", "EPOCH": "2025-12-20T22:14:20.585760", "MEAN_MOTION": 14.79471119, "ECCENTRICITY": 0.00014086, "INCLINATION": 97.9232, "RA_OF_ASC_NODE": 89.6565, "ARG_OF_PERICENTER": 97.0747, "MEAN_ANOMALY": 263.0625, "EPHEMERIS_TYPE": 0, "CLASSIFICATION_TYPE": "U", "NORAD_CAT_ID": 39766, "ELEMENT_SET_NO": 999, "REV_AT_EPOCH": 62522, "BSTAR": 0.00019456291, "MEAN_MOTION_DOT": 1.402e-05, "MEAN_MOTION_DDOT": 0}, "tle": {"line1": "1 39766U 14029A   25354.92662715  .00001402  00000+0  19456-3 0  9998", "line2": "2 39766  97.9232  89.6565 0001408  97.0747 263.0625 14.79471119625226"}}, "geometry": {"type": "Point", "coordinates": [-98.03134120583131, -44.96701478350757]}}, {"type": "Feature", "properties": {"norad_id": 40010, "name": "KAZEOSAT 2", "group": "resource", "lat": -49.75335619337267, "lon": -151.8710092107514, "alt_km": 623.8945371379968, "timestamp": "2025-12-21T05:44:51.232872+00:00", "meta": {"OBJECT_NAME": "KAZEOSAT 2", "OBJECT_ID": "2014-033A", "EPOCH": "2025-12-20T21:53:21.807744", "MEAN_MOTION": 14.8517918, "ECCENTRICITY": 0.00083551, "INCLINATION": 97.5497, "RA_OF_ASC_NODE": 198.8043, "ARG_OF_PERICENTER": 178.2049, "MEAN_ANOMALY": 181.9198, "EPHEMERIS_TYPE": 0, "CLASSIFICATION_TYPE": "U", "NORAD_CAT_ID": 40010, "ELEMENT_SET_NO": 999, "REV_AT_EPOCH": 62249, "BSTAR": 5.1436313e-05, "MEAN_MOTION_DOT": 3.91e-06, "MEAN_MOTION_DDOT": 0}, "tle": {"line1": "1 40010U 14033A   25354.91205796  .00000391  00000+0  51436-4 0  9999", "line2": "2 40010  97.5497 198.8043 0008355 178.2049 181.9198 14.85179180622497"}}, "geometry": {"type": "Point", "coordinates": [-151.8710092107514, -49.75335619337267]}}, {"type": "Feature", "properties": {"norad_id": 40011, "name": "HODOYOSHI-4", "group": "resource", "lat": 70.38099805141192, "lon": 25.518326819742406, "alt_km": 591.5684974913756, "timestamp": "2025-12-21T05:44:51.232882+00:00", "meta": {"OBJECT_NAME": "HODOYOSHI-4", "OBJECT_ID": "2014-033B", "EPOCH": "2025-12-20T22:48:16.287264", "MEAN_MOTION": 14.87509706, "ECCENTRICITY": 0.00238082, "INCLINATION": 97.5405, "RA_OF_ASC_NODE": 183.4288, "ARG_OF_PERICENTER": 172.9824, "MEAN_ANOMALY": 187.1731, "EPHEMERIS_TYPE": 0, "CLASSIFICATION_TYPE": "U", "NORAD_CAT_ID": 40011, "ELEMENT_SET_NO": 999, "REV_AT_EPOCH": 62230, "BSTAR": 0.00020400581, "MEAN_MOTION_DOT": 1.807e-05, "MEAN_MOTION_DDOT": 0}, "tle": {"line1": "1 40011U 14033B   25354.95018851  .00001807  00000+0  20401-3 0  9998", "line2": "2 40011  97.5405 183.4288 0023808 172.9824 187.1731 14.87509706622304"}}, "geometry": {"type": "Point", "coordinates": [25.518326819742406, 70.38099805141192]}}, {"type": "Feature", "properties": {"norad_id": 40013, "name": "DEIMOS-2", "group": "resource", "lat": 71.85969962197272, "lon": -153.31385174086518, "alt_km": 580.7243423213786, "timestamp": "2025-12-21T05:44:51.232892+00:00", "meta": {"OBJECT_NAME": "DEIMOS-2", "OBJECT_ID": "2014-033D", "EPOCH": "2025-12-20T21:22:38.027424", "MEAN_MOTION": 14.93009459, "ECCENTRICITY": 0.00015077, "INCLINATION": 97.6068, "RA_OF_ASC_NODE": 230.422, "ARG_OF_PERICENTER": 103.9135, "MEAN_ANOMALY": 256.2253, "EPHEMERIS_TYPE": 0, "CLASSIFICATION_TYPE": "U", "NORAD_CAT_ID": 40013, "ELEMENT_SET_NO": 999, "REV_AT_EPOCH": 61111, "BSTAR": 0.00023936689, "MEAN_MOTION_DOT": 2.434e-05, "MEAN_MOTION_DDOT": 0}, "tle": {"line1": "1 40013U 14033D   25354.89071791  .00002434  00000+0  23937-3 0  9999", "line2": "2 40013  97.6068 230.4220 0001507 103.9135 256.2253 14.93009459611113"}}, "geometry": {"type": "Point", "coordinates": [-153.31385174086518, 71.85969962197272]}}, {"type": "Feature", "properties": {"norad_id": 40015, "name": "HODOYOSHI-3", "group": "resource", "lat": -47.11189597447401, "lon": 168.99214954749775, "alt_km": 622.2139418370789, "timestamp": "2025-12-21T05:44:51.232902+00:00", "meta": {"OBJECT_NAME": "HODOYOSHI-3", "OBJECT_ID": "2014-033F", "EPOCH": "2025-12-20T21:52:32.664288", "MEAN_MOTION": 14.84831555, "ECCENTRICITY": 0.00322723, "INCLINATION": 97.6204, "RA_OF_ASC_NODE": 160.3914, "ARG_OF_PERICENTER": 220.0926, "MEAN_ANOMALY": 139.7908, "EPHEMERIS_TYPE": 0, "CLASSIFICATION_TYPE": "U", "NORAD_CAT_ID": 40015, "ELEMENT_SET_NO": 999, "REV_AT_EPOCH": 62116, "BSTAR": 0.00013814017, "MEAN_MOTION_DOT": 1.131e-05, "MEAN_MOTION_DDOT": 0}, "tle": {"line1": "1 40015U 14033F   25354.91148917  .00001131  00000+0  13814-3 0  9995", "line2": "2 40015  97.6204 160.3914 0032272 220.0926 139.7908 14.84831555621168"}}, "geometry": {"type": "Point", "coordinates": [168.99214954749775, -47.11189597447401]}}, {"type": "Feature", "properties": {"norad_id": 40053, "name": "SPOT 7", "group": "resource", "lat": 18.959966735289566, "lon": 54.318501293817235, "alt_km": 690.5416843693256, "timestamp": "2025-12-21T05:44:51.232912+00:00", "meta": {"OBJECT_NAME": "SPOT 7", "OBJECT_ID": "2014-034A", "EPOCH": "2025-12-20T23:05:03.185088", "MEAN_MOTION": 14.60742865, "ECCENTRICITY": 0.00015673, "INCLINATION": 98.0901, "RA_OF_ASC_NODE": 56.8482, "ARG_OF_PERICENTER": 85.3484, "MEAN_ANOMALY": 274.7895, "EPHEMERIS_TYPE": 0, "CLASSIFICATION_TYPE": "U", "NORAD_CAT_ID": 40053, "ELEMENT_SET_NO": 999, "REV_AT_EPOCH": 61111, "BSTAR": 6.3510593e-05, "MEAN_MOTION_DOT": 2.64e-06, "MEAN_MOTION_DDOT": 0}, "tle": {"line1": "1 40053U 14034A   25354.96184242  .00000264  00000+0  63511-4 0  9990", "line2": "2 40053  98.0901  56.8482 0001567  85.3484 274.7895 14.60742865611110"}}, "geometry": {"type": "Point", "coordinates": [54.318501293817235, 18.959966735289566]}}, {"type": "Feature", "properties": {"norad_id": 40072, "name": "SKYSAT-B", "group": "resource", "lat": 46.56292384548444, "lon": -69.54212307716463, "alt_km": 601.2329581149288, "timestamp": "2025-12-21T05:44:51.232922+00:00", "meta": {"OBJECT_NAME": "SKYSAT-B", "OBJECT_ID": "2014-037D", "EPOCH": "2025-12-20T19:50:54.393216", "MEAN_MOTION": 14.87352902, "ECCENTRICITY": 0.00066439, "INCLINATION": 98.3623, "RA_OF_ASC_NODE": 298.9605, "ARG_OF_PERICENTER": 127.4898, "MEAN_ANOMALY": 232.6921, "EPHEMERIS_TYPE": 0, "CLASSIFICATION_TYPE": "U", "NORAD_CAT_ID": 40072, "ELEMENT_SET_NO": 999, "REV_AT_EPOCH": 61944, "BSTAR": 0.00012991233, "MEAN_MOTION_DOT": 1.113e-05, "MEAN_MOTION_DDOT": 0}, "tle": {"line1": "1 40072U 14037D   25354.82701844  .00001113  00000+0  12991-3 0  9991", "line2": "2 40072  98.3623 298.9605 0006643 127.4898 232.6921 14.87352902619443"}}, "geometry": {"type": "Point", "coordinates": [-69.54212307716463, 46.56292384548444]}}, {"type": "Feature", "properties": {"norad_id": 40115, "name": "WORLDVIEW-3 (WV-3)", "group": "resource", "lat": -51.17237212927735, "lon": -122.49051557485629, "alt_km": 621.7428188051999, "timestamp": "2025-12-21T05:44:51.232932+00:00", "meta": {"OBJECT_NAME": "WORLDVIEW-3 (WV-3)", "OBJECT_ID": "2014-048A", "EPOCH": "2025-12-20T22:14:12.534144", "MEAN_MOTION": 14.84664617, "ECCENTRICITY": 0.00018234, "INCLINATION": 97.877, "RA_OF_ASC_NODE": 67.1057, "ARG_OF_PERICENTER": 135.8247, "MEAN_ANOMALY": 224.3114, "EPHEMERIS_TYPE": 0, "CLASSIFICATION_TYPE": "U", "NORAD_CAT_ID": 40115, "ELEMENT_SET_NO": 999, "REV_AT_EPOCH": 61545, "BSTAR": 9.1978388e-05, "MEAN_MOTION_DOT": 7.25e-06, "MEAN_MOTION_DDOT": 0}, "tle": {"line1": "1 40115U 14048A   25354.92653396  .00000725  00000+0  91978-4 0  9991", "line2": "2 40115  97.8770  67.1057 0001823 135.8247 224.3114 14.84664617615456"}}, "geometry": {"type": "Point", "coordinates": [-122.49051557485629, -51.17237212927735]}}]}